[{"OBJECT_NAME":"OBJECT V","OBJECT_ID":"2023-085V","EPOCH":"2026-03-09T21:44:00.165408","MEAN_MOTION":15.30745852,"ECCENTRICITY":0.00069081,"INCLINATION":97.4843,"RA_OF_ASC_NODE":179.3833,"ARG_OF_PERICENTER":71.0503,"MEAN_ANOMALY":289.1485,"EPHEMERIS_TYPE":0,"CLASSIFICATION_TYPE":"U","NORAD_CAT_ID":57023,"ELEMENT_SET_NO":999,"REV_AT_EPOCH":15149,"BSTAR":0.00067780507,"MEAN_MOTION_DOT":0.00020109,"MEAN_MOTION_DDOT":0},{"OBJECT_NAME":"STARLINK-35866","OBJECT_ID":"2025-283A","EPOCH":"2026-03-09T06:50:20.658048","MEAN_MOTION":15.30191624,"ECCENTRICITY":0.00013203,"INCLINATION":53.162,"RA_OF_ASC_NODE":25.9432,"ARG_OF_PERICENTER":118.3683,"MEAN_ANOMALY":241.7451,"EPHEMERIS_TYPE":0,"CLASSIFICATION_TYPE":"U","NORAD_CAT_ID":66878,"ELEMENT_SET_NO":999,"REV_AT_EPOCH":1578,"BSTAR":0.0013245698,"MEAN_MOTION_DOT":0.00039067,"MEAN_MOTION_DDOT":0}]
